MEAN_MOTION;ECCENTRICITY;INCLINATION;RA_OF_ASC_NODE;ARG_OF_PERICENTER;MEAN_ANOMALY;BSTAR;MEAN_MOTION_DOT;MEAN_MOTION_DDOT;TYPE
0.98082516;0.0008413;8.3246;46.9592;297.1972;235.9865;0;-8.4E-7;0;Weather
0.98082299;0.0008403;8.3254;46.956;297.1839;61.3809;0;-7.1E-7;0;Weather
0.98082108;0.0008399;8.3261;46.953;297.2923;238.4451;0;-6.0E-7;0;Weather
0.98081807;0.000839;8.3276;46.947;297.3376;232.7321;0;-4.2E-7;0;Weather
0.9808169;0.0008382;8.3285;46.9435;297.2927;75.261;0;-3.5E-7;0;Weather
0.98081626;0.0008384;8.3292;46.941;297.365;227.0453;0;-3.0E-7;0;Weather
0.98081585;0.0008376;8.33;46.9376;297.3203;69.555;0;-2.7E-7;0;Weather
0.98081624;0.0008373;8.3316;46.9317;297.3676;63.8331;0;-2.6E-7;0;Weather
0.98081688;0.0008379;8.3323;46.929;297.4344;224.1782;0;-2.8E-7;0;Weather
0.98081918;0.000838;8.3338;46.9231;297.449;222.3635;0;-3.8E-7;0;Weather
0.9808211;0.0008377;8.3347;46.9196;297.4414;77.7008;0;-4.8E-7;0;Weather
0.98082544;0.0008386;8.3365;46.9129;297.5181;125.5124;0;-7.0E-7;0;Weather
0.98082925;0.000839;8.3378;46.9081;297.575;66.2311;0;-9.0E-7;0;Weather
0.98083427;0.0008401;8.3395;46.9015;297.6918;113.5858;0;-1.19E-6;0;Weather
0.98083804;0.0008409;8.3409;46.8963;297.8315;79.9627;0;-1.42E-6;0;Weather
0.98083995;0.0008417;8.3417;46.8936;297.8899;257.0365;0;-1.53E-6;0;Weather
0.9808416;0.0008417;8.3425;46.8907;298.0202;74.1168;0;-1.63E-6;0;Weather
0.98084311;0.0008424;8.3433;46.8879;298.0831;252.0102;0;-1.72E-6;0;Weather
0.98084427;0.0008424;8.344;46.8851;298.2339;68.1996;0;-1.8E-6;0;Weather
0.98084534;0.000843;8.3449;46.882;298.3147;261.0186;0;-1.87E-6;0;Weather
0.98084596;0.0008429;8.3456;46.8795;298.4535;62.2954;0;-1.92E-6;0;Weather
0.98084648;0.0008432;8.3473;46.8735;298.7147;81.6876;0;-1.96E-6;0;Weather
0.98084585;0.0008434;8.3488;46.868;298.9623;75.785;0;-1.94E-6;0;Weather
0.98084419;0.0008429;8.3504;46.8625;299.2589;69.8177;0;-1.85E-6;0;Weather
0.98084328;0.0008422;8.3511;46.8602;299.3603;220.0679;0;-1.79E-6;0;Weather
0.98083862;0.0008414;8.3537;46.8513;299.859;83.168;0;-1.5E-6;0;Weather
0.98083697;0.0008404;8.3545;46.8485;299.9719;260.2275;0;-1.39E-6;0;Weather
0.98083529;0.0008405;8.3553;46.8458;300.1255;77.2527;0;-1.28E-6;0;Weather
0.98083358;0.000839;8.356;46.8432;300.2401;254.2915;0;-1.16E-6;0;Weather
0.98083185;0.000839;8.3568;46.8404;300.3975;71.3178;0;-1.04E-6;0;Weather
0.98083011;0.0008375;8.3576;46.8377;300.5003;248.374;0;-9.3E-7;0;Weather
0.98082398;0.0008339;8.3608;46.8265;300.9599;261.8452;0;-5.1E-7;0;Weather
0.98082282;0.0008333;8.3616;46.8237;301.0811;78.929;0;-4.3E-7;0;Weather
0.98082113;0.000831;8.3631;46.8182;301.2518;73.0842;0;-3.0E-7;0;Weather
0.98082055;0.0008295;8.3638;46.8154;301.3451;250.1378;0;-2.6E-7;0;Weather
0.98082006;0.0008272;8.3653;46.8097;301.4849;244.3118;0;-2.2E-7;0;Weather
0.98082066;0.0008247;8.3671;46.8032;301.5762;281.0472;0;-2.4E-7;0;Weather
0.98082203;0.0008229;8.3685;46.7978;301.6577;258.1144;0;-3.2E-7;0;Weather
0.98082431;0.0008213;8.37;46.7921;301.6955;252.3949;0;-4.6E-7;0;Weather
0.98082727;0.0008202;8.3715;46.7865;301.6865;246.7457;0;-6.4E-7;0;Weather
0.98083124;0.000819;8.3732;46.7806;301.695;271.4342;0;-8.8E-7;0;Weather
0.98083514;0.0008183;8.3746;46.7753;301.7172;255.3391;0;-1.12E-6;0;Weather
0.98083925;0.000818;8.3762;46.7697;301.7459;254.9841;0;-1.38E-6;0;Weather
0.98084318;0.0008181;8.3777;46.7643;301.7608;249.0394;0;-1.62E-6;0;Weather
0.98084656;0.0008183;8.3792;46.7589;301.8043;243.6033;0;-1.84E-6;0;Weather
0.98084903;0.0008187;8.3807;46.7534;301.8779;242.4206;0;-2.02E-6;0;Weather
0.98085067;0.0008193;8.3823;46.7478;301.9607;257.3958;0;-2.15E-6;0;Weather
0.98085083;0.0008202;8.3837;46.7428;302.0626;225.9728;0;-2.19E-6;0;Weather
0.98085083;0.0008203;8.3838;46.7424;302.0759;251.6222;0;-2.19E-6;0;Weather
0.98084953;0.0008203;8.3853;46.737;302.2254;245.8313;0;-2.16E-6;0;Weather
0.98084793;0.0008204;8.3864;46.7331;302.3615;143.3342;0;-2.08E-6;0;Weather
0.98084717;0.0008206;8.3868;46.7317;302.3995;239.9848;0;-2.04E-6;0;Weather
0.98084268;0.0008208;8.3887;46.7251;302.6747;318.7043;0;-1.8E-6;0;Weather
0.98083856;0.0008206;8.3901;46.7203;302.8606;287.7752;0;-1.56E-6;0;Weather
0.98083412;0.00082;8.3914;46.7156;303.0686;247.6172;0;-1.3E-6;0;Weather
0.98082957;0.0008192;8.3929;46.7107;303.3033;216.4273;0;-1.01E-6;0;Weather
0.98082423;0.0008177;8.3946;46.7048;303.5988;261.0038;0;-6.7E-7;0;Weather
0.98082042;0.0008155;8.3962;46.6995;303.8535;255.079;0;-4.0E-7;0;Weather
0.98081781;0.0008139;8.3977;46.6943;304.0734;249.1918;0;-1.9E-7;0;Weather
0.98081722;0.0008128;8.3981;46.6928;304.2138;349.5318;0;-1.5E-7;0;Weather
0.98081646;0.0008106;8.3991;46.6891;304.3992;243.1739;0;-6.0E-8;0;Weather
0.98081645;0.0008085;8.4006;46.6839;304.6251;238.4092;0;-1.0E-8;0;Weather
0.98081796;0.0008059;8.4021;46.6786;304.836;231.4021;0;-6.0E-8;0;Weather
0.98081816;0.0008056;8.4023;46.6782;304.8506;256.6597;0;-6.0E-8;0;Weather
0.98082095;0.0008027;8.4037;46.6728;305.044;250.8019;0;-1.9E-7;0;Weather
0.98082436;0.0008002;8.4051;46.6677;305.1914;219.6983;0;-3.8E-7;0;Weather
0.98082901;0.0007964;8.4067;46.6619;305.3298;239.1809;0;-6.5E-7;0;Weather
0.98083389;0.0007938;8.4083;46.656;305.4008;255.5441;0;-9.5E-7;0;Weather
0.98083843;0.0007917;8.4097;46.6505;305.4301;253.0369;0;-1.23E-6;0;Weather
0.98084116;0.0007911;8.4107;46.6468;305.3615;129.589;0;-1.41E-6;0;Weather
0.98084233;0.0007905;8.4112;46.645;305.4113;247.3897;0;-1.5E-6;0;Weather
0.98084524;0.0007889;8.4125;46.6399;305.397;216.4646;0;-1.7E-6;0;Weather
0.98084544;0.0007886;8.4126;46.6395;305.4074;241.7138;0;-1.72E-6;0;Weather
0.98084746;0.0007872;8.4141;46.6341;305.3811;236.1036;0;-1.88E-6;0;Weather
0.98084829;0.000786;8.4157;46.6283;305.3535;255.7351;0;-1.98E-6;0;Weather
0.98084806;0.0007851;8.417;46.6233;305.3208;224.8274;0;-2.0E-6;0;Weather
0.98084657;0.0007836;8.4186;46.6177;305.3618;244.4177;0;-1.95E-6;0;Weather
0.98084419;0.000783;8.4201;46.6121;305.3714;256.5224;0;-1.83E-6;0;Weather
0.98084104;0.0007826;8.4216;46.6068;305.4148;258.3142;0;-1.66E-6;0;Weather
0.98083755;0.0007825;8.423;46.6015;305.4786;252.5907;0;-1.46E-6;0;Weather
0.98083415;0.0007831;8.4244;46.5966;305.5457;221.5622;0;-1.25E-6;0;Weather
0.98083012;0.0007824;8.426;46.5908;305.704;248.6297;0;-1.0E-6;0;Weather
0.98082999;0.0007829;8.426;46.5906;305.6903;268.5504;0;-9.9E-7;0;Weather
0.98082658;0.0007826;8.4275;46.5852;305.8685;267.1759;0;-7.6E-7;0;Weather
0.98082397;0.000782;8.4289;46.5804;306.0288;229.3879;0;-5.7E-7;0;Weather
0.98082216;0.0007826;8.4301;46.5761;306.1618;170.205;0;-4.2E-7;0;Weather
0.98082141;0.0007833;8.4307;46.5738;306.2035;324.9262;0;-3.5E-7;0;Weather
0.98082018;0.000786;8.4324;46.5679;306.3;356.0372;0;-2.2E-7;0;Weather
0.98082001;0.0007846;8.4335;46.5641;306.4437;261.6069;0;-1.7E-7;0;Weather
0.98082016;0.0007848;8.4341;46.5618;306.5623;53.729;0;-1.6E-7;0;Weather
0.98082064;0.0007842;8.435;46.5586;306.6459;275.8648;0;-1.6E-7;0;Weather
0.98082226;0.0007823;8.4365;46.5536;306.8549;260.7144;0;-2.1E-7;0;Weather
0.98082485;0.0007798;8.438;46.5481;307.0615;271.1191;0;-3.2E-7;0;Weather
0.98082787;0.0007776;8.4393;46.5432;307.2442;238.9848;0;-4.8E-7;0;Weather
0.98083167;0.0007747;8.4408;46.5379;307.4349;233.1195;0;-6.9E-7;0;Weather
0.98083643;0.0007719;8.4424;46.532;307.5951;271.2103;0;-9.6E-7;0;Weather
0.98084051;0.000769;8.4437;46.5269;307.6998;246.8238;0;-1.22E-6;0;Weather
0.98084192;0.0007673;8.4442;46.525;307.7289;12.9936;0;-1.31E-6;0;Weather
0.9808455;0.000764;8.4455;46.5198;307.8148;347.0021;0;-1.56E-6;0;Weather
0.9808487;0.0007605;8.4469;46.5141;307.8339;345.5034;0;-1.8E-6;0;Weather
0.9808509;0.0007578;8.4484;46.5085;307.8455;344.3553;0;-1.99E-6;0;Weather
0.98085179;0.0007565;8.4494;46.5043;307.8673;243.1564;0;-2.08E-6;0;Weather
0.98085187;0.0007536;8.451;46.4983;307.8154;262.1559;0;-2.15E-6;0;Weather
0.98085039;0.0007498;8.4524;46.4928;307.7356;253.7061;0;-2.13E-6;0;Weather
0.98085024;0.0007498;8.4524;46.4925;307.7389;271.6746;0;-2.13E-6;0;Weather
0.98084782;0.0007483;8.4537;46.4875;307.6576;235.2817;0;-2.04E-6;0;Weather
0.98084414;0.0007471;8.4552;46.4821;307.5704;226.9406;0;-1.87E-6;0;Weather
0.98083928;0.0007466;8.4567;46.4763;307.5006;246.6395;0;-1.61E-6;0;Weather
0.98083426;0.0007466;8.4581;46.4707;307.4369;241.0175;0;-1.34E-6;0;Weather
0.98082886;0.0007462;8.4596;46.4649;307.3924;264.6091;0;-1.03E-6;0;Weather
0.98082429;0.0007461;8.461;46.4595;307.3748;255.0321;0;-7.6E-7;0;Weather
0.98082062;0.0007462;8.4624;46.4542;307.3844;235.1709;0;-5.3E-7;0;Weather
0.98081782;0.0007462;8.4638;46.4486;307.4361;243.6164;0;-3.3E-7;0;Weather
0.98081647;0.0007459;8.4653;46.4431;307.5125;237.8691;0;-2.1E-7;0;Weather
0.98081663;0.0007455;8.4667;46.4376;307.6182;232.0921;0;-1.7E-7;0;Weather
0.98081827;0.000745;8.4682;46.4317;307.75;251.5671;0;-2.1E-7;0;Weather
0.98082107;0.0007443;8.4696;46.4262;307.9036;245.7369;0;-3.2E-7;0;Weather
0.98082924;0.0007419;8.4725;46.4154;308.2342;234.0738;0;-7.1E-7;0;Weather
0.98083;0.0007423;8.4728;46.4145;308.2648;295.3069;0;-7.5E-7;0;Weather
0.9808315;0.0007422;8.4732;46.4127;308.3488;51.0486;0;-8.2E-7;0;Weather
0.98083414;0.0007407;8.4741;46.4096;308.4193;253.5027;0;-9.6E-7;0;Weather
0.98083929;0.0007397;8.4758;46.403;308.6433;326.7439;0;-1.25E-6;0;Weather
0.98084223;0.0007385;8.4769;46.3987;308.7718;241.809;0;-1.42E-6;0;Weather
0.98084521;0.0007361;8.4783;46.3932;308.9208;235.9684;0;-1.6E-6;0;Weather
0.98084717;0.0007336;8.4797;46.3876;309.0502;230.1706;0;-1.74E-6;0;Weather
0.98084728;0.0007334;8.4798;46.3872;309.053;255.4643;0;-1.75E-6;0;Weather
0.980848;0.0007314;8.4811;46.382;309.1557;224.3901;0;-1.82E-6;0;Weather
0.98084767;0.0007291;8.4825;46.3763;309.2313;218.6604;0;-1.84E-6;0;Weather
0.98084763;0.0007287;8.4826;46.3759;309.2331;243.9478;0;-1.84E-6;0;Weather
0.98084636;0.0007263;8.4839;46.3705;309.2589;212.969;0;-1.81E-6;0;Weather
0.98084523;0.000724;8.4846;46.3673;309.2226;43.873;0;-1.77E-6;0;Weather
0.98084395;0.0007224;8.4854;46.3642;309.2493;232.5922;0;-1.71E-6;0;Weather
0.98084256;0.0007208;8.4861;46.3613;309.1652;49.8529;0;-1.65E-6;0;Weather
0.98083936;0.0007187;8.4875;46.3554;309.1423;44.2162;0;-1.5E-6;0;Weather
